[{"OBJECT_NAME":"BUFENG 1A","OBJECT_ID":"2019-032A","EPOCH":"2026-03-09T22:03:27.507168","MEAN_MOTION":15.26012088,"ECCENTRICITY":0.00054719,"INCLINATION":44.9758,"RA_OF_ASC_NODE":238.6688,"ARG_OF_PERICENTER":55.4463,"MEAN_ANOMALY":304.6935,"EPHEMERIS_TYPE":0,"CLASSIFICATION_TYPE":"U","NORAD_CAT_ID":44310,"ELEMENT_SET_NO":999,"REV_AT_EPOCH":37201,"BSTAR":0.00062413703,"MEAN_MOTION_DOT":0.00016103,"MEAN_MOTION_DDOT":0},{"OBJECT_NAME":"STARLINK-32725","OBJECT_ID":"2025-003U","EPOCH":"2026-03-09T00:26:27.849696","MEAN_MOTION":15.27605123,"ECCENTRICITY":0.00011864,"INCLINATION":42.9993,"RA_OF_ASC_NODE":292.3326,"ARG_OF_PERICENTER":247.747,"MEAN_ANOMALY":112.3256,"EPHEMERIS_TYPE":0,"CLASSIFICATION_TYPE":"U","NORAD_CAT_ID":62505,"ELEMENT_SET_NO":999,"REV_AT_EPOCH":6645,"BSTAR":0.0010130603,"MEAN_MOTION_DOT":0.00027741,"MEAN_MOTION_DDOT":0}]
