BUFENG 1A               
1 44310U 19032A   26068.91906837  .00016103  00000+0  62414-3 0  9992
2 44310  44.9758 238.6688 0005472  55.4463 304.6935 15.26012088372013
STARLINK-32725          
1 62505U 25003U   26068.01837789  .00027741  00000+0  10131-2 0  9991
2 62505  42.9993 292.3326 0001186 247.7470 112.3256 15.27605123 66453
